NORAD_CAT_ID,OBJECT_NAME,OBJECT_TYPE,EPOCH,MEAN_MOTION,ECCENTRICITY,INCLINATION,RA_OF_ASC_NODE,ARG_OF_PERICENTER,MEAN_ANOMALY,BSTAR,MEAN_MOTION_DOT,MEAN_MOTION_DDOT,TLE_LINE0,TLE_LINE1,TLE_LINE2,SEMIMAJOR_AXIS,PERIOD,APOGEE,PERIGEE,DECAYED
53132.0,STARLINK-4063,PAYLOAD,2023-03-05 06:53:37,15.08838171,0.0001588,53.2142,74.0173,106.7306,253.386,0.0004229,6.449e-05,0.0,0 STARLINK-4063,1 53132U 22083A   23064.28723635  .00006449  00000-0  42290-3 0  9993,2 53132  53.2142  74.0173 0001588 106.7306 253.3860 15.08838171 35096,6917.886,95.438,540.85,538.652,0.0
53132.0,STARLINK-4063,PAYLOAD,2023-03-05 18:01:19,15.08835663,0.0001412,53.214,71.9366,103.9062,256.2087,0.0012735,0.00020035,0.0,0 STARLINK-4063,1 53132U 22083A   23064.75092364  .00020035  00000-0  12735-2 0  9990,2 53132  53.2140  71.9366 0001412 103.9062 256.2087 15.08835663 35162,6917.894,95.438,540.735,538.782,0.0
53132.0,STARLINK-4063,PAYLOAD,2023-03-06 06:44:24,15.08871533,0.0001414,53.214,69.5575,102.7909,257.3241,0.0018295,0.00028974,0.0,0 STARLINK-4063,1 53132U 22083A   23065.28083701  .00028974  00000-0  18295-2 0  9991,2 53132  53.2140  69.5575 0001414 102.7909 257.3241 15.08871533 35874,6917.784,95.436,540.627,538.671,0.0
53132.0,STARLINK-4063,PAYLOAD,2023-03-06 11:30:33,15.08883557,0.000147,53.2143,68.6647,105.3933,254.7221,0.0016076,0.0002542,0.0,0 STARLINK-4063,1 53132U 22083A   23065.47955085  .00025420  00000-0  16076-2 0  9993,2 53132  53.2143  68.6647 0001470 105.3933 254.7221 15.08883557 35277,6917.747,95.435,540.629,538.595,0.0
53132.0,STARLINK-4063,PAYLOAD,2023-03-07 06:35:11,15.08844858,0.0001307,53.2149,65.098,99.7718,260.3422,0.0018678,0.00029567,0.0,0 STARLINK-4063,1 53132U 22083A   23066.27443999  .00029567  00000-0  18678-2 0  9994,2 53132  53.2149  65.0980 0001307  99.7718 260.3422 15.08844858 36021,6917.866,95.437,540.635,538.826,0.0
53132.0,STARLINK-4063,PAYLOAD,2023-03-07 11:21:20,15.0885542,0.0001116,53.2158,64.2058,97.5996,262.5123,0.0020058,0.00031792,0.0,0 STARLINK-4063,1 53132U 22083A   23066.47315867  .00031792  00000-0  20058-2 0  9996,2 53132  53.2158  64.2058 0001116  97.5996 262.5123 15.08855420 35422,6917.833,95.437,540.47,538.926,0.0
53132.0,STARLINK-4063,PAYLOAD,2023-03-08 00:04:26,15.08850293,0.0001761,53.215,61.8248,82.2298,277.8894,0.0015087,0.00023811,0.0,0 STARLINK-4063,1 53132U 22083A   23067.00308484  .00023811  00000-0  15087-2 0  9992,2 53132  53.2150  61.8248 0001761  82.2298 277.8894 15.08850293 36136,6917.849,95.437,540.932,538.496,0.0
53132.0,STARLINK-4063,PAYLOAD,2023-03-08 15:58:18,15.08836286,0.0002767,53.2148,58.8485,96.1354,263.9954,4.0111e-05,3.5e-06,0.0,0 STARLINK-4063,1 53132U 22083A   23067.66548813  .00000350  00000-0  40111-4 0  9997,2 53132  53.2148  58.8485 0002767  96.1354 263.9954 15.08836286 36236,6917.892,95.438,541.671,537.843,0.0
53132.0,STARLINK-4063,PAYLOAD,2023-03-08 22:19:50,15.08849619,6.77e-05,53.216,57.663,124.6954,235.4102,0.0020192,0.00032002,0.0,0 STARLINK-4063,1 53132U 22083A   23067.93044391  .00032002  00000-0  20192-2 0  9993,2 53132  53.2160  57.6630 0000677 124.6954 235.4102 15.08849619 35647,6917.851,95.437,540.184,539.248,0.0
53132.0,STARLINK-4063,PAYLOAD,2023-03-09 03:05:59,15.08873168,9.18e-05,53.2154,56.7697,104.1038,256.0056,0.0031044,0.00049511,0.0,0 STARLINK-4063,1 53132U 22083A   23068.12916137  .00049511  00000-0  31044-2 0  9992,2 53132  53.2154  56.7697 0000918 104.1038 256.0056 15.08873168 36304,6917.779,95.435,540.279,539.009,0.0
53132.0,STARLINK-4063,PAYLOAD,2023-03-09 15:49:04,15.08871175,9.1e-05,53.2156,54.391,87.7362,272.3734,0.0013097,0.00020635,0.0,0 STARLINK-4063,1 53132U 22083A   23068.65907537  .00020635  00000-0  13097-2 0  9998,2 53132  53.2156  54.3910 0000910  87.7362 272.3734 15.08871175 36384,6917.785,95.436,540.28,539.021,0.0
53132.0,STARLINK-4063,PAYLOAD,2023-03-10 02:56:46,15.08850494,9.68e-05,53.216,52.3097,88.847,271.2634,0.001338,0.00021076,0.0,0 STARLINK-4063,1 53132U 22083A   23069.12275775  .00021076  00000-0  13380-2 0  9998,2 53132  53.2160  52.3097 0000968  88.8470 271.2634 15.08850494 36454,6917.848,95.437,540.383,539.044,0.0
53132.0,STARLINK-4063,PAYLOAD,2023-03-10 15:39:51,15.08859622,0.000156,53.2156,49.9307,65.3676,294.7478,0.0014947,0.00023593,0.0,0 STARLINK-4063,1 53132U 22083A   23069.65267707  .00023593  00000-0  14947-2 0  9998,2 53132  53.2156  49.9307 0001560  65.3676 294.7478 15.08859622 36539,6917.82,95.436,540.765,538.606,0.0
53132.0,STARLINK-4063,PAYLOAD,2023-03-11 05:58:20,15.08845252,0.0001159,53.2157,47.2541,70.769,289.3428,0.0026627,0.0004235,0.0,0 STARLINK-4063,1 53132U 22083A   23070.24884270  .00042350  00000-0  26627-2 0  9995,2 53132  53.2157  47.2541 0001159  70.7690 289.3428 15.08845252 36620,6917.864,95.437,540.531,538.928,0.0
53132.0,STARLINK-4063,PAYLOAD,2023-03-11 10:44:29,15.08858833,0.0001225,53.2155,46.3623,73.3473,286.7654,0.0026322,0.00041874,0.0,0 STARLINK-4063,1 53132U 22083A   23070.44756156  .00041874  00000-0  26322-2 0  9990,2 53132  53.2155  46.3623 0001225  73.3473 286.7654 15.08858833 36026,6917.823,95.436,540.535,538.84,0.0
53132.0,STARLINK-4063,PAYLOAD,2023-03-12 10:35:16,15.0886958,0.0001464,53.2166,41.8987,118.4148,241.6992,0.0021611,0.00034302,0.0,0 STARLINK-4063,1 53132U 22083A   23071.44116150  .00034302  00000-0  21611-2 0  9999,2 53132  53.2166  41.8987 0001464 118.4148 241.6992 15.08869580 36808,6917.79,95.436,540.668,538.642,0.0
53132.0,STARLINK-4063,PAYLOAD,2023-03-12 13:46:02,15.08849602,0.0001355,53.2169,41.3022,95.5985,264.5162,0.0014162,0.00022329,0.0,0 STARLINK-4063,1 53132U 22083A   23071.57364493  .00022329  00000-0  14162-2 0  9997,2 53132  53.2169  41.3022 0001355  95.5985 264.5162 15.08849602 36197,6917.851,95.437,540.653,538.779,0.0
53132.0,STARLINK-4063,PAYLOAD,2023-03-12 21:42:58,15.08835524,9.32e-05,53.2177,39.8193,101.4041,258.7056,0.00054982,8.472e-05,0.0,0 STARLINK-4063,1 53132U 22083A   23071.90484875  .00008472  00000-0  54982-3 0  9999,2 53132  53.2177  39.8193 0000932 101.4041 258.7056 15.08835524 36248,6917.894,95.438,540.404,539.114,0.0
53132.0,STARLINK-4063,PAYLOAD,2023-03-13 07:15:17,15.0885929,0.0001564,53.2156,38.0359,92.6886,267.4285,0.00177,0.00028009,0.0,0 STARLINK-4063,1 53132U 22083A   23072.30228523  .00028009  00000-0  17700-2 0  9994,2 53132  53.2156  38.0359 0001564  92.6886 267.4285 15.08859290 36933,6917.821,95.436,540.768,538.604,0.0
53132.0,STARLINK-4063,PAYLOAD,2023-03-14 03:55:18,15.08848341,0.0001577,53.2168,34.1705,117.3358,242.7795,0.0016532,0.00026127,0.0,0 STARLINK-4063,1 53132U 22083A   23073.16340969  .00026127  00000-0  16532-2 0  9999,2 53132  53.2168  34.1705 0001577 117.3358 242.7795 15.08848341 37063,6917.855,95.437,540.811,538.629,0.0
53132.0,STARLINK-4063,PAYLOAD,2023-03-14 07:06:04,15.08854762,0.0001552,53.2168,33.576,116.4635,243.6517,0.001652,0.00026112,0.0,0 STARLINK-4063,1 53132U 22083A   23073.29588871  .00026112  00000-0  16520-2 0  9990,2 53132  53.2168  33.5760 0001552 116.4635 243.6517 15.08854762 36456,6917.835,95.437,540.774,538.627,0.0
53132.0,STARLINK-4063,PAYLOAD,2023-03-15 03:46:05,15.08869045,0.0001514,53.2164,29.7107,93.5373,266.5792,0.0017824,0.00028215,0.0,0 STARLINK-4063,1 53132U 22083A   23074.15700524  .00028215  00000-0  17824-2 0  9991,2 53132  53.2164  29.7107 0001514  93.5373 266.5792 15.08869045 37210,6917.792,95.436,540.704,538.609,0.0
53132.0,STARLINK-4063,PAYLOAD,2023-03-15 21:15:19,15.0886041,0.0001578,53.2163,26.4388,94.9799,265.1373,0.00097914,0.00015338,0.0,0 STARLINK-4063,1 53132U 22083A   23074.88564128  .00015338  00000-0  97914-3 0  9990,2 53132  53.2163  26.4388 0001578  94.9799 265.1373 15.08860410 36699,6917.818,95.436,540.775,538.591,0.0
53132.0,STARLINK-4063,PAYLOAD,2023-03-16 03:36:51,15.08855544,0.0001043,53.2155,25.2506,94.0625,266.0487,0.0003875,5.887e-05,0.0,0 STARLINK-4063,1 53132U 22083A   23075.15059927  .00005887  00000-0  38750-3 0  9998,2 53132  53.2155  25.2506 0001043  94.0625 266.0487 15.08855544 37368,6917.833,95.437,540.419,538.976,0.0
53132.0,STARLINK-4063,PAYLOAD,2023-03-16 21:06:06,15.0883155,0.0001205,53.2167,21.9793,85.5139,274.5991,-3.3206e-05,-8.16e-06,0.0,0 STARLINK-4063,1 53132U 22083A   23075.87924565 -.00000816  00000-0 -33206-4 0  9997,2 53132  53.2167  21.9793 0001205  85.5139 274.5991 15.08831550 37474,6917.906,95.438,540.605,538.938,0.0
53132.0,STARLINK-4063,PAYLOAD,2023-03-17 12:59:58,15.08830437,0.0001086,53.2163,19.0055,106.1525,253.9587,0.00026495,3.93e-05,0.0,0 STARLINK-4063,1 53132U 22083A   23076.54165067  .00003930  00000-0  26495-3 0  9995,2 53132  53.2163  19.0055 0001086 106.1525 253.9587 15.08830437 36941,6917.91,95.438,540.526,539.023,0.0
53132.0,STARLINK-4063,PAYLOAD,2023-03-18 01:43:03,15.08838602,8.5e-05,53.2171,16.6266,98.7581,261.3507,0.00018252,2.618e-05,0.0,0 STARLINK-4063,1 53132U 22083A   23077.07156996  .00002618  00000-0  18252-3 0  9999,2 53132  53.2171  16.6266 0000850  98.7581 261.3507 15.08838602 37659,6917.885,95.438,540.338,539.162,0.0
53132.0,STARLINK-4063,PAYLOAD,2023-03-18 12:50:44,15.08855674,2.99e-05,53.2162,14.5448,160.9919,199.1084,0.00055345,8.535e-05,0.0,0 STARLINK-4063,1 53132U 22083A   23077.53523966  .00008535  00000-0  55345-3 0  9993,2 53132  53.2162  14.5448 0000299 160.9919 199.1084 15.08855674 37726,6917.832,95.437,539.904,539.491,0.0
53132.0,STARLINK-4063,PAYLOAD,2023-03-18 19:12:17,15.08851347,0.0001994,53.2165,13.3547,90.9124,269.2096,0.00038196,5.798e-05,0.0,0 STARLINK-4063,1 53132U 22083A   23077.80020780  .00005798  00000-0  38196-3 0  9992,2 53132  53.2165  13.3547 0001994  90.9124 269.2096 15.08851347 37768,6917.846,95.437,541.09,538.331,0.0
53132.0,STARLINK-4063,PAYLOAD,2023-03-19 03:09:14,15.08832933,0.0001141,53.216,11.8679,103.2224,256.8895,-5.7678e-05,-1.205e-05,0.0,0 STARLINK-4063,1 53132U 22083A   23078.13141276 -.00001205  00000-0 -57678-4 0  9991,2 53132  53.2160  11.8679 0001141 103.2224 256.8895 15.08832933 37810,6917.902,95.438,540.556,538.978,0.0
